[{"OBJECT_NAME":"STARLINK-36182","OBJECT_ID":"2025-304A","EPOCH":"2026-03-09T16:24:16.808832","MEAN_MOTION":14.98330411,"ECCENTRICITY":0.00038051,"INCLINATION":70.0026,"RA_OF_ASC_NODE":174.4842,"ARG_OF_PERICENTER":265.7123,"MEAN_ANOMALY":94.3601,"EPHEMERIS_TYPE":0,"CLASSIFICATION_TYPE":"U","NORAD_CAT_ID":67192,"ELEMENT_SET_NO":999,"REV_AT_EPOCH":1385,"BSTAR":0.00028103913,"MEAN_MOTION_DOT":3.262e-5,"MEAN_MOTION_DDOT":0},{"OBJECT_NAME":"DELTA 1 DEB","OBJECT_ID":"1977-065DL","EPOCH":"2026-03-09T05:03:29.284704","MEAN_MOTION":13.58952222,"ECCENTRICITY":0.06330817,"INCLINATION":28.7836,"RA_OF_ASC_NODE":97.9522,"ARG_OF_PERICENTER":253.7759,"MEAN_ANOMALY":169.3549,"EPHEMERIS_TYPE":0,"CLASSIFICATION_TYPE":"U","NORAD_CAT_ID":10314,"ELEMENT_SET_NO":999,"REV_AT_EPOCH":34572,"BSTAR":0.0019577614,"MEAN_MOTION_DOT":5.734e-5,"MEAN_MOTION_DDOT":0}]
